{
  "type": "FeatureCollection",
  "features": [
    {
      "type": "Feature",
      "properties": {
        "norad_id": 31955,
        "name": "FENGYUN 1C DEB",
        "group": "fengyun-1c-debris",
        "lat": 64.04353322167805,
        "lon": -140.1446568918659,
        "alt_km": 663.6826121786689,
        "timestamp": "2025-12-26T21:25:53.295448+00:00",
        "meta_object_name": "FENGYUN 1C DEB",
        "meta_object_id": "1999-025CNG",
        "meta_epoch": "2025-12-26T14:42:52.984800",
        "meta_mean_motion": 14.64112179,
        "meta_eccentricity": 0.00438024,
        "meta_inclination": 99.2803,
        "meta_ra_of_asc_node": 239.1674,
        "meta_arg_of_pericenter": 138.0338,
        "meta_mean_anomaly": 253.8761,
        "meta_ephemeris_type": 0,
        "meta_classification_type": "U",
        "meta_norad_cat_id": 31955,
        "meta_element_set_no": 999,
        "meta_rev_at_epoch": 96760,
        "meta_bstar": 0.0015887364,
        "meta_mean_motion_dot": 8.412e-05,
        "meta_mean_motion_ddot": 0,
        "tle_line1": "1 31955U 99025CNG 25360.61311325  .00008412  00000+0  15887-2 0  9991",
        "tle_line2": "2 31955  99.2803 239.1674 0043802 138.0338 253.8761 14.64112179967607"
      },
      "geometry": {
        "type": "Point",
        "coordinates": [
          -140.1446568918659,
          64.04353322167805
        ]
      }
    },
    {
      "type": "Feature",
      "properties": {
        "norad_id": 31959,
        "name": "FENGYUN 1C DEB",
        "group": "fengyun-1c-debris",
        "lat": -38.071379812918565,
        "lon": -121.29672920401711,
        "alt_km": 758.7536439341784,
        "timestamp": "2025-12-26T21:25:53.295458+00:00",
        "meta_object_name": "FENGYUN 1C DEB",
        "meta_object_id": "1999-025CNL",
        "meta_epoch": "2025-12-21T22:06:57.352032",
        "meta_mean_motion": 14.46896532,
        "meta_eccentricity": 0.00273534,
        "meta_inclination": 98.5099,
        "meta_ra_of_asc_node": 226.9733,
        "meta_arg_of_pericenter": 126.577,
        "meta_mean_anomaly": 233.7945,
        "meta_ephemeris_type": 0,
        "meta_classification_type": "U",
        "meta_norad_cat_id": 31959,
        "meta_element_set_no": 999,
        "meta_rev_at_epoch": 64486,
        "meta_bstar": 0.0023827795,
        "meta_mean_motion_dot": 8.652e-05,
        "meta_mean_motion_ddot": 0,
        "tle_line1": "1 31959U 99025CNL 25355.92149713  .00008652  00000+0  23828-2 0  9993",
        "tle_line2": "2 31959  98.5099 226.9733 0027353 126.5770 233.7945 14.46896532644868"
      },
      "geometry": {
        "type": "Point",
        "coordinates": [
          -121.29672920401711,
          -38.071379812918565
        ]
      }
    },
    {
      "type": "Feature",
      "properties": {
        "norad_id": 31964,
        "name": "FENGYUN 1C DEB",
        "group": "fengyun-1c-debris",
        "lat": -18.06467773028905,
        "lon": 128.05082891007652,
        "alt_km": 681.8011038064096,
        "timestamp": "2025-12-26T21:25:53.295468+00:00",
        "meta_object_name": "FENGYUN 1C DEB",
        "meta_object_id": "1999-025CNR",
        "meta_epoch": "2025-12-26T14:55:48.077472",
        "meta_mean_motion": 14.58794851,
        "meta_eccentricity": 0.00286581,
        "meta_inclination": 98.6998,
        "meta_ra_of_asc_node": 124.9046,
        "meta_arg_of_pericenter": 346.495,
        "meta_mean_anomaly": 13.5477,
        "meta_ephemeris_type": 0,
        "meta_classification_type": "U",
        "meta_norad_cat_id": 31964,
        "meta_element_set_no": 999,
        "meta_rev_at_epoch": 67712,
        "meta_bstar": 0.002606457,
        "meta_mean_motion_dot": 0.0001222,
        "meta_mean_motion_ddot": 0,
        "tle_line1": "1 31964U 99025CNR 25360.62208423  .00012220  00000+0  26065-2 0  9998",
        "tle_line2": "2 31964  98.6998 124.9046 0028658 346.4950  13.5477 14.58794851677122"
      },
      "geometry": {
        "type": "Point",
        "coordinates": [
          128.05082891007652,
          -18.06467773028905
        ]
      }
    },
    {
      "type": "Feature",
      "properties": {
        "norad_id": 31966,
        "name": "FENGYUN 1C DEB",
        "group": "fengyun-1c-debris",
        "lat": 56.84888565544741,
        "lon": 140.8385194381267,
        "alt_km": 722.944832296821,
        "timestamp": "2025-12-26T21:25:53.295479+00:00",
        "meta_object_name": "FENGYUN 1C DEB",
        "meta_object_id": "1999-025CNT",
        "meta_epoch": "2025-12-24T05:21:16.195104",
        "meta_mean_motion": 14.67701471,
        "meta_eccentricity": 0.00860415,
        "meta_inclination": 99.0179,
        "meta_ra_of_asc_node": 151.9727,
        "meta_arg_of_pericenter": 239.292,
        "meta_mean_anomaly": 119.9784,
        "meta_ephemeris_type": 0,
        "meta_classification_type": "U",
        "meta_norad_cat_id": 31966,
        "meta_element_set_no": 999,
        "meta_rev_at_epoch": 65911,
        "meta_bstar": 0.0014485658,
        "meta_mean_motion_dot": 8.665e-05,
        "meta_mean_motion_ddot": 0,
        "tle_line1": "1 31966U 99025CNT 25358.22310411  .00008665  00000+0  14486-2 0  9996",
        "tle_line2": "2 31966  99.0179 151.9727 0086041 239.2920 119.9784 14.67701471659119"
      },
      "geometry": {
        "type": "Point",
        "coordinates": [
          140.8385194381267,
          56.84888565544741
        ]
      }
    },
    {
      "type": "Feature",
      "properties": {
        "norad_id": 31972,
        "name": "FENGYUN 1C DEB",
        "group": "fengyun-1c-debris",
        "lat": -77.14195398435747,
        "lon": 88.11279217014922,
        "alt_km": 859.07395707043,
        "timestamp": "2025-12-26T21:25:53.295489+00:00",
        "meta_object_name": "FENGYUN 1C DEB",
        "meta_object_id": "1999-025CNZ",
        "meta_epoch": "2025-12-24T01:42:34.636608",
        "meta_mean_motion": 14.07519501,
        "meta_eccentricity": 0.00764333,
        "meta_inclination": 99.21,
        "meta_ra_of_asc_node": 39.9378,
        "meta_arg_of_pericenter": 0.4023,
        "meta_mean_anomaly": 29.3212,
        "meta_ephemeris_type": 0,
        "meta_classification_type": "U",
        "meta_norad_cat_id": 31972,
        "meta_element_set_no": 999,
        "meta_rev_at_epoch": 95120,
        "meta_bstar": 0.00020159041,
        "meta_mean_motion_dot": 3.02e-06,
        "meta_mean_motion_ddot": 0,
        "tle_line1": "1 31972U 99025CNZ 25358.07123422  .00000302  00000+0  20159-3 0  9995",
        "tle_line2": "2 31972  99.2100  39.9378 0076433   0.4023  29.3212 14.07519501951205"
      },
      "geometry": {
        "type": "Point",
        "coordinates": [
          88.11279217014922,
          -77.14195398435747
        ]
      }
    },
    {
      "type": "Feature",
      "properties": {
        "norad_id": 31974,
        "name": "FENGYUN 1C DEB",
        "group": "fengyun-1c-debris",
        "lat": 70.95684016891606,
        "lon": -13.79524568939291,
        "alt_km": 836.5792164204031,
        "timestamp": "2025-12-26T21:25:53.295510+00:00",
        "meta_object_name": "FENGYUN 1C DEB",
        "meta_object_id": "1999-025CPB",
        "meta_epoch": "2025-12-24T23:44:15.961632",
        "meta_mean_motion": 14.29664564,
        "meta_eccentricity": 0.0071341,
        "meta_inclination": 98.3795,
        "meta_ra_of_asc_node": 9.6517,
        "meta_arg_of_pericenter": 266.2671,
        "meta_mean_anomaly": 93.0352,
        "meta_ephemeris_type": 0,
        "meta_classification_type": "U",
        "meta_norad_cat_id": 31974,
        "meta_element_set_no": 999,
        "meta_rev_at_epoch": 69597,
        "meta_bstar": 0.0024190503,
        "meta_mean_motion_dot": 6.335e-05,
        "meta_mean_motion_ddot": 0,
        "tle_line1": "1 31974U 99025CPB 25358.98907363  .00006335  00000+0  24191-2 0  9992",
        "tle_line2": "2 31974  98.3795   9.6517 0071341 266.2671  93.0352 14.29664564695976"
      },
      "geometry": {
        "type": "Point",
        "coordinates": [
          -13.79524568939291,
          70.95684016891606
        ]
      }
    },
    {
      "type": "Feature",
      "properties": {
        "norad_id": 31978,
        "name": "FENGYUN 1C DEB",
        "group": "fengyun-1c-debris",
        "lat": -33.64877996528066,
        "lon": 159.60602170230692,
        "alt_km": 893.6528129241051,
        "timestamp": "2025-12-26T21:25:53.295521+00:00",
        "meta_object_name": "FENGYUN 1C DEB",
        "meta_object_id": "1999-025CPF",
        "meta_epoch": "2025-12-18T09:15:01.115712",
        "meta_mean_motion": 13.63124115,
        "meta_eccentricity": 0.02630419,
        "meta_inclination": 98.3793,
        "meta_ra_of_asc_node": 146.6417,
        "meta_arg_of_pericenter": 35.0311,
        "meta_mean_anomaly": 326.7827,
        "meta_ephemeris_type": 0,
        "meta_classification_type": "U",
        "meta_norad_cat_id": 31978,
        "meta_element_set_no": 999,
        "meta_rev_at_epoch": 91667,
        "meta_bstar": 0.0010168637,
        "meta_mean_motion_dot": 9.73e-06,
        "meta_mean_motion_ddot": 0,
        "tle_line1": "1 31978U 99025CPF 25352.38542958  .00000973  00000+0  10169-2 0  9991",
        "tle_line2": "2 31978  98.3793 146.6417 0263041  35.0311 326.7827 13.63124115916678"
      },
      "geometry": {
        "type": "Point",
        "coordinates": [
          159.60602170230692,
          -33.64877996528066
        ]
      }
    }
  ]
}